NORAD_CAT_ID,OBJECT_NAME,OBJECT_TYPE,EPOCH,MEAN_MOTION,ECCENTRICITY,INCLINATION,RA_OF_ASC_NODE,ARG_OF_PERICENTER,MEAN_ANOMALY,BSTAR,MEAN_MOTION_DOT,MEAN_MOTION_DDOT,TLE_LINE0,TLE_LINE1,TLE_LINE2,SEMIMAJOR_AXIS,PERIOD,APOGEE,PERIGEE,DECAYED
52638.0,STARLINK-3941,PAYLOAD,2023-09-05 04:52:41,15.0883916,0.0001446,53.2164,63.3868,90.0467,270.0691,6.9386e-05,8.16e-06,0.0,0 STARLINK-3941,1 52638U 22052AS  23248.20325751  .00000816  00000-0  69386-4 0  9990,2 52638  53.2164  63.3868 0001446  90.0467 270.0691 15.08839160 73446,6917.883,95.438,540.748,538.748,0.0
52638.0,STARLINK-3941,PAYLOAD,2023-09-05 14:25:00,15.08840566,0.0001333,53.2168,61.6023,90.0339,270.0806,5.0021e-05,5.08e-06,0.0,0 STARLINK-3941,1 52638U 22052AS  23248.60069708  .00000508  00000-0  50021-4 0  9995,2 52638  53.2168  61.6023 0001333  90.0339 270.0806 15.08840566 73076,6917.879,95.438,540.666,538.822,0.0
52638.0,STARLINK-3941,PAYLOAD,2023-09-06 11:05:01,15.08841401,0.0001312,53.2171,57.737,90.9311,269.1832,0.00018079,2.591e-05,0.0,0 STARLINK-3941,1 52638U 22052AS  23249.46181822  .00002591  00000-0  18079-3 0  9992,2 52638  53.2171  57.7370 0001312  90.9311 269.1832 15.08841401 73636,6917.876,95.437,540.649,538.833,0.0
52638.0,STARLINK-3941,PAYLOAD,2023-09-06 17:26:33,15.08841619,0.0001331,53.2166,56.5472,89.5931,270.5213,0.00016244,2.298e-05,0.0,0 STARLINK-3941,1 52638U 22052AS  23249.72677813  .00002298  00000-0  16244-3 0  9997,2 52638  53.2166  56.5472 0001331  89.5931 270.5213 15.08841619 73240,6917.875,95.437,540.661,538.82,0.0
52638.0,STARLINK-3941,PAYLOAD,2023-09-06 20:37:19,15.08847144,0.0001418,53.2167,55.9521,88.764,271.3514,0.00019074,2.75e-05,0.0,0 STARLINK-3941,1 52638U 22052AS  23249.85925539  .00002750  00000-0  19074-3 0  9999,2 52638  53.2167  55.9521 0001418  88.7640 271.3514 15.08847144 73694,6917.859,95.437,540.705,538.743,0.0
52638.0,STARLINK-3941,PAYLOAD,2023-09-06 23:48:05,15.08849829,0.0001367,53.2166,55.3572,89.0673,271.0476,0.00021852,3.192e-05,0.0,0 STARLINK-3941,1 52638U 22052AS  23249.99173350  .00003192  00000-0  21852-3 0  9998,2 52638  53.2166  55.3572 0001367  89.0673 271.0476 15.08849829 73287,6917.85,95.437,540.661,538.77,0.0
52638.0,STARLINK-3941,PAYLOAD,2023-09-07 14:06:34,15.08835576,0.0001241,53.2168,52.6818,72.7811,287.3317,1.5735e-05,-3.7e-07,0.0,0 STARLINK-3941,1 52638U 22052AS  23250.58790172 -.00000037  00000-0  15735-4 0  9992,2 52638  53.2168  52.6818 0001241  72.7811 287.3317 15.08835576 73802,6917.894,95.438,540.617,538.9,0.0
52638.0,STARLINK-3941,PAYLOAD,2023-09-08 13:57:21,15.08843054,0.0001595,53.2152,48.2198,89.0599,271.0576,0.00012856,1.759e-05,0.0,0 STARLINK-3941,1 52638U 22052AS  23251.58149921  .00001759  00000-0  12856-3 0  9994,2 52638  53.2152  48.2198 0001595  89.0599 271.0576 15.08843054 73956,6917.871,95.437,540.839,538.633,0.0
52638.0,STARLINK-3941,PAYLOAD,2023-09-08 17:08:07,15.08844208,0.0001434,53.2177,47.626,88.8479,271.2677,0.00012099,1.638e-05,0.0,0 STARLINK-3941,1 52638U 22052AS  23251.71397879  .00001638  00000-0  12099-3 0  9991,2 52638  53.2177  47.6260 0001434  88.8479 271.2677 15.08844208 73543,6917.868,95.437,540.725,538.741,0.0
52638.0,STARLINK-3941,PAYLOAD,2023-09-09 10:37:22,15.08837881,0.0001381,53.2168,44.3545,80.2493,279.8655,0.00014309,1.99e-05,0.0,0 STARLINK-3941,1 52638U 22052AS  23252.44262323  .00001990  00000-0  14309-3 0  9994,2 52638  53.2168  44.3545 0001381  80.2493 279.8655 15.08837881 73657,6917.887,95.438,540.707,538.797,0.0
52638.0,STARLINK-3941,PAYLOAD,2023-09-09 13:48:08,15.08841688,0.0001347,53.2182,43.7614,91.9834,268.1312,0.00014803,2.069e-05,0.0,0 STARLINK-3941,1 52638U 22052AS  23252.57510145  .00002069  00000-0  14803-3 0  9993,2 52638  53.2182  43.7614 0001347  91.9834 268.1312 15.08841688 74105,6917.875,95.437,540.672,538.808,0.0
52638.0,STARLINK-3941,PAYLOAD,2023-09-09 21:45:04,15.08850999,0.0001361,53.2181,42.2736,87.3158,272.799,0.00030803,4.619e-05,0.0,0 STARLINK-3941,1 52638U 22052AS  23252.90629737  .00004619  00000-0  30803-3 0  9999,2 52638  53.2181  42.2736 0001361  87.3158 272.7990 15.08850999 73722,6917.847,95.437,540.653,538.77,0.0
52638.0,STARLINK-3941,PAYLOAD,2023-09-10 10:28:09,15.0884075,0.0001408,53.2183,39.8946,88.7671,271.3482,8.4076e-05,1.05e-05,0.0,0 STARLINK-3941,1 52638U 22052AS  23253.43622011  .00001050  00000-0  84076-4 0  9994,2 52638  53.2183  39.8946 0001408  88.7671 271.3482 15.08840750 73800,6917.878,95.438,540.717,538.769,0.0
52638.0,STARLINK-3941,PAYLOAD,2023-09-10 13:38:55,15.08846004,0.0001479,53.2177,39.2997,98.7786,261.3374,0.00017749,2.538e-05,0.0,0 STARLINK-3941,1 52638U 22052AS  23253.56869901  .00002538  00000-0  17749-3 0  9993,2 52638  53.2177  39.2997 0001479  98.7786 261.3374 15.08846004 74256,6917.862,95.437,540.75,538.704,0.0
52638.0,STARLINK-3941,PAYLOAD,2023-09-10 16:49:41,15.0885328,0.00013,53.2181,38.7062,85.152,274.962,0.00033466,5.044e-05,0.0,0 STARLINK-3941,1 52638U 22052AS  23253.70117572  .00005044  00000-0  33466-3 0  9998,2 52638  53.2181  38.7062 0001300  85.1520 274.9620 15.08853280 73849,6917.84,95.437,540.604,538.805,0.0
52638.0,STARLINK-3941,PAYLOAD,2023-09-11 02:22:00,15.08840289,0.0002156,53.2182,36.9196,87.1814,272.9425,0.00012535,1.707e-05,0.0,0 STARLINK-3941,1 52638U 22052AS  23254.09862139  .00001707  00000-0  12535-3 0  9993,2 52638  53.2182  36.9196 0002156  87.1814 272.9425 15.08840289 73909,6917.88,95.438,541.236,538.253,0.0
52638.0,STARLINK-3941,PAYLOAD,2023-09-11 13:29:42,15.08836569,0.0001355,53.2188,34.8388,88.4728,271.642,-2.4569e-05,-6.79e-06,0.0,0 STARLINK-3941,1 52638U 22052AS  23254.56229880 -.00000679  00000-0 -24569-4 0  9995,2 52638  53.2188  34.8388 0001355  88.4728 271.6420 15.08836569 74406,6917.891,95.438,540.693,538.819,0.0
52638.0,STARLINK-3941,PAYLOAD,2023-09-12 13:20:29,15.08841992,0.000161,53.2178,30.3785,71.0898,289.0268,0.00038345,5.82e-05,0.0,0 STARLINK-3941,1 52638U 22052AS  23255.55590264  .00005820  00000-0  38345-3 0  9999,2 52638  53.2178  30.3785 0001610  71.0898 289.0268 15.08841992 74552,6917.874,95.437,540.853,538.626,0.0
52638.0,STARLINK-3941,PAYLOAD,2023-09-12 16:31:16,15.08847696,0.0001387,53.2178,29.7844,75.1724,284.9422,0.00056568,8.728e-05,0.0,0 STARLINK-3941,1 52638U 22052AS  23255.68838106  .00008728  00000-0  56568-3 0  9990,2 52638  53.2178  29.7844 0001387  75.1724 284.9422 15.08847696 74142,6917.857,95.437,540.681,538.762,0.0
52638.0,STARLINK-3941,PAYLOAD,2023-09-13 13:11:16,15.08859527,0.0001415,53.2167,25.9207,89.4916,270.6238,0.00071709,0.00011149,0.0,0 STARLINK-3941,1 52638U 22052AS  23256.54949525  .00011149  00000-0  71709-3 0  9999,2 52638  53.2167  25.9207 0001415  89.4916 270.6238 15.08859527 74709,6917.821,95.436,540.665,538.707,0.0
52638.0,STARLINK-3941,PAYLOAD,2023-09-13 16:22:02,15.08868859,0.0001036,53.2175,25.3239,101.9348,258.1761,0.00096509,0.00015117,0.0,0 STARLINK-3941,1 52638U 22052AS  23256.68197029  .00015117  00000-0  96509-3 0  9992,2 52638  53.2175  25.3239 0001036 101.9348 258.1761 15.08868859 74727,6917.792,95.436,540.374,538.94,0.0
52638.0,STARLINK-3941,PAYLOAD,2023-09-13 21:08:11,15.08879223,0.0001171,53.2174,24.4299,92.0671,268.0455,0.001249,0.00019667,0.0,0 STARLINK-3941,1 52638U 22052AS  23256.88068597  .00019667  00000-0  12490-2 0  9991,2 52638  53.2174  24.4299 0001171  92.0671 268.0455 15.08879223 74324,6917.761,95.435,540.436,538.815,0.0
52638.0,STARLINK-3941,PAYLOAD,2023-09-14 08:15:54,15.08819262,9.58e-05,53.218,22.349,130.928,229.1795,-0.00057183,-9.371e-05,0.0,0 STARLINK-3941,1 52638U 22052AS  23257.34437944 -.00009371  00000-0 -57183-3 0  9991,2 52638  53.2180  22.3490 0000958 130.9280 229.1795 15.08819262 74390,6917.944,95.439,540.472,539.146,0.0
52638.0,STARLINK-3941,PAYLOAD,2023-09-14 13:02:04,15.08810969,8.94e-05,53.2171,21.4617,61.4918,298.6164,0.0010612,0.00016628,0.0,0 STARLINK-3941,1 52638U 22052AS  23257.54310699  .00016628  00000-0  10612-2 0  9996,2 52638  53.2171  21.4617 0000894  61.4918 298.6164 15.08810969 74853,6917.969,95.439,540.453,539.216,0.0
52638.0,STARLINK-3941,PAYLOAD,2023-09-14 14:37:27,15.08822064,0.0001379,53.218,21.1586,145.3559,214.7523,0.00086265,0.00013461,0.0,0 STARLINK-3941,1 52638U 22052AS  23257.60934455  .00013461  00000-0  86265-3 0  9995,2 52638  53.2180  21.1586 0001379 145.3559 214.7523 15.08822064 74438,6917.935,95.439,540.754,538.846,0.0
52638.0,STARLINK-3941,PAYLOAD,2023-09-15 12:52:51,15.08857002,0.0001182,53.2182,16.999,97.9241,262.1886,0.0014644,0.00023106,0.0,0 STARLINK-3941,1 52638U 22052AS  23258.53670955  .00023106  00000-0  14644-2 0  9998,2 52638  53.2182  16.9990 0001182  97.9241 262.1886 15.08857002 75006,6917.828,95.436,540.511,538.876,0.0
52638.0,STARLINK-3941,PAYLOAD,2023-09-15 17:39:00,15.08868305,0.0001164,53.2185,16.1072,97.249,262.8635,0.0015376,0.00024287,0.0,0 STARLINK-3941,1 52638U 22052AS  23258.73542609  .00024287  00000-0  15376-2 0  9998,2 52638  53.2185  16.1072 0001164  97.2490 262.8635 15.08868305 74603,6917.794,95.436,540.464,538.854,0.0
52638.0,STARLINK-3941,PAYLOAD,2023-09-16 12:43:38,15.08845666,0.0001017,53.2195,12.5403,81.7724,278.3384,0.001179,0.00018528,0.0,0 STARLINK-3941,1 52638U 22052AS  23259.53030942  .00018528  00000-0  11790-2 0  9996,2 52638  53.2195  12.5403 0001017  81.7724 278.3384 15.08845666 75156,6917.863,95.437,540.432,539.025,0.0
52638.0,STARLINK-3941,PAYLOAD,2023-09-16 17:29:47,15.08852076,0.0001069,53.2189,11.6471,102.2186,257.8926,0.0013881,0.0002188,0.0,0 STARLINK-3941,1 52638U 22052AS  23259.72902734  .00021880  00000-0  13881-2 0  9992,2 52638  53.2189  11.6471 0001069 102.2186 257.8926 15.08852076 74754,6917.843,95.437,540.448,538.969,0.0
52638.0,STARLINK-3941,PAYLOAD,2023-09-17 12:34:25,15.08858674,0.0001094,53.2189,8.0782,81.6533,278.4583,0.0022815,0.00036227,0.0,0 STARLINK-3941,1 52638U 22052AS  23260.52391084  .00036227  00000-0  22815-2 0  9990,2 52638  53.2189   8.0782 0001094  81.6533 278.4583 15.08858674 75303,6917.823,95.436,540.445,538.932,0.0
